NORAD_CAT_ID,OBJECT_NAME,OBJECT_TYPE,EPOCH,MEAN_MOTION,ECCENTRICITY,INCLINATION,RA_OF_ASC_NODE,ARG_OF_PERICENTER,MEAN_ANOMALY,BSTAR,MEAN_MOTION_DOT,MEAN_MOTION_DDOT,TLE_LINE0,TLE_LINE1,TLE_LINE2,SEMIMAJOR_AXIS,PERIOD,APOGEE,PERIGEE,DECAYED
54773.0,STARLINK-5453,PAYLOAD,2023-05-28 02:56:07,15.08845151,7.35e-05,53.2156,287.5461,73.549,286.5583,0.00032831,4.942e-05,0.0,0 STARLINK-5453,1 54773U 22175R   23148.12231447  .00004942  00000-0  32831-3 0  9994,2 54773  53.2156 287.5461 0000735  73.5490 286.5583 15.08845151 26458,6917.865,95.437,540.238,539.221,0.0
54773.0,STARLINK-5453,PAYLOAD,2023-05-28 15:39:12,15.08847538,8.49e-05,53.2161,285.1657,82.9761,277.1328,0.00018392,2.641e-05,0.0,0 STARLINK-5453,1 54773U 22175R   23148.65223296  .00002641  00000-0  18392-3 0  9995,2 54773  53.2161 285.1657 0000849  82.9761 277.1328 15.08847538 24379,6917.857,95.437,540.31,539.135,0.0
54773.0,STARLINK-5453,PAYLOAD,2023-05-29 13:54:36,15.08844519,8.51e-05,53.216,281.0029,78.8288,281.28,0.00014423,2.009e-05,0.0,0 STARLINK-5453,1 54773U 22175R   23149.57959304  .00002009  00000-0  14423-3 0  9992,2 54773  53.2160 281.0029 0000851  78.8288 281.2800 15.08844519 26679,6917.867,95.437,540.32,539.143,0.0
54773.0,STARLINK-5453,PAYLOAD,2023-05-29 15:29:59,15.08845553,8.52e-05,53.2161,280.7054,80.2174,279.8914,0.00013116,1.801e-05,0.0,0 STARLINK-5453,1 54773U 22175R   23149.64583216  .00001801  00000-0  13116-3 0  9992,2 54773  53.2161 280.7054 0000852  80.2174 279.8914 15.08845553 24526,6917.863,95.437,540.318,539.139,0.0
54773.0,STARLINK-5453,PAYLOAD,2023-05-29 18:40:46,15.08847039,8.56e-05,53.2161,280.1104,81.0285,279.0804,0.00013983,1.939e-05,0.0,0 STARLINK-5453,1 54773U 22175R   23149.77831082  .00001939  00000-0  13983-3 0  9997,2 54773  53.2161 280.1104 0000856  81.0285 279.0804 15.08847039 26705,6917.859,95.437,540.316,539.132,0.0
54773.0,STARLINK-5453,PAYLOAD,2023-05-30 08:59:14,15.08838309,9.38e-05,53.2165,277.432,96.6287,263.4811,4.4244e-06,-2.17e-06,0.0,0 STARLINK-5453,1 54773U 22175R   23150.37447442 -.00000217  00000-0  44244-5 0  9993,2 54773  53.2165 277.4320 0000938  96.6287 263.4811 15.08838309 24638,6917.886,95.438,540.399,539.102,0.0
54773.0,STARLINK-5453,PAYLOAD,2023-05-30 12:10:00,15.08839492,9.04e-05,53.2167,276.8371,88.7259,271.3837,7.5354e-05,9.12e-06,0.0,0 STARLINK-5453,1 54773U 22175R   23150.50695410  .00000912  00000-0  75354-4 0  9994,2 54773  53.2167 276.8371 0000904  88.7259 271.3837 15.08839492 26815,6917.882,95.438,540.372,539.122,0.0
54773.0,STARLINK-5453,PAYLOAD,2023-05-30 15:20:46,15.08843177,9.11e-05,53.2178,276.2425,80.2719,279.8376,4.2077e-05,3.82e-06,0.0,0 STARLINK-5453,1 54773U 22175R   23150.63943266  .00000382  00000-0  42077-4 0  9990,2 54773  53.2178 276.2425 0000911  80.2719 279.8376 15.08843177 26835,6917.871,95.437,540.366,539.105,0.0
54773.0,STARLINK-5453,PAYLOAD,2023-05-31 00:53:05,15.08844137,9.42e-05,53.2178,274.4579,74.4306,285.679,7.0629e-05,8.37e-06,0.0,0 STARLINK-5453,1 54773U 22175R   23151.03687048  .00000837  00000-0  70629-4 0  9997,2 54773  53.2178 274.4579 0000942  74.4306 285.6790 15.08844137 24735,6917.868,95.437,540.384,539.081,0.0
54773.0,STARLINK-5453,PAYLOAD,2023-05-31 13:36:11,15.08838978,9.81e-05,53.2183,272.0848,104.4222,255.6879,2.3332e-05,8.4e-07,0.0,0 STARLINK-5453,1 54773U 22175R   23151.56679617  .00000084  00000-0  23332-4 0  9991,2 54773  53.2183 272.0848 0000981 104.4222 255.6879 15.08838978 26977,6917.884,95.438,540.427,539.07,0.0
54773.0,STARLINK-5453,PAYLOAD,2023-05-31 15:11:34,15.08840527,0.0001028,53.2184,271.7878,108.3218,251.7886,3.8314e-05,3.22e-06,0.0,0 STARLINK-5453,1 54773U 22175R   23151.63303479  .00000322  00000-0  38314-4 0  9990,2 54773  53.2184 271.7878 0001028 108.3218 251.7886 15.08840527 24828,6917.879,95.438,540.455,539.033,0.0
54773.0,STARLINK-5453,PAYLOAD,2023-06-01 00:43:53,15.08840499,0.0001122,53.2183,270.0032,121.4893,238.6209,6.741e-07,-2.77e-06,0.0,0 STARLINK-5453,1 54773U 22175R   23152.03047539 -.00000277  00000-0  67410-6 0  9998,2 54773  53.2183 270.0032 0001122 121.4893 238.6209 15.08840499 27049,6917.879,95.438,540.52,538.968,0.0
54773.0,STARLINK-5453,PAYLOAD,2023-06-02 00:34:40,15.08830933,9.78e-05,53.2175,265.5434,107.94,252.1699,0.00020883,3.037e-05,0.0,0 STARLINK-5453,1 54773U 22175R   23153.02407970  .00003037  00000-0  20883-3 0  9993,2 54773  53.2175 265.5434 0000978 107.9400 252.1699 15.08830933 25039,6917.908,95.438,540.45,539.097,0.0
54773.0,STARLINK-5453,PAYLOAD,2023-06-02 13:17:45,15.08835187,0.0001002,53.2174,263.1628,99.9441,260.1664,4.0636e-05,3.59e-06,0.0,0 STARLINK-5453,1 54773U 22175R   23153.55400191  .00000359  00000-0  40636-4 0  9992,2 54773  53.2174 263.1628 0001002  99.9441 260.1664 15.08835187 27276,6917.895,95.438,540.453,539.067,0.0
54773.0,STARLINK-5453,PAYLOAD,2023-06-02 16:28:31,15.08841504,0.0001019,53.2176,262.568,99.0583,261.0525,4.0267e-05,3.53e-06,0.0,0 STARLINK-5453,1 54773U 22175R   23153.68647801  .00000353  00000-0  40267-4 0  9991,2 54773  53.2176 262.5680 0001019  99.0583 261.0525 15.08841504 27293,6917.876,95.437,540.446,539.036,0.0
54773.0,STARLINK-5453,PAYLOAD,2023-06-03 13:08:32,15.08845121,9.44e-05,53.2171,258.7015,95.467,264.6429,1.1099e-05,-1.11e-06,0.0,0 STARLINK-5453,1 54773U 22175R   23154.54759765 -.00000111  00000-0  11099-4 0  9994,2 54773  53.2171 258.7015 0000944  95.4670 264.6429 15.08845121 27426,6917.865,95.437,540.383,539.077,0.0
54773.0,STARLINK-5453,PAYLOAD,2023-06-03 14:43:55,15.08845653,8.67e-05,53.2166,258.4036,89.7621,270.3471,4.6045e-05,4.45e-06,0.0,0 STARLINK-5453,1 54773U 22175R   23154.61383603  .00000445  00000-0  46045-4 0  9994,2 54773  53.2166 258.4036 0000867  89.7621 270.3471 15.08845653 25278,6917.863,95.437,540.328,539.128,0.0
54773.0,STARLINK-5453,PAYLOAD,2023-06-04 00:16:14,15.08838688,8.19e-05,53.217,256.6174,98.81,261.2985,5.0538e-05,5.17e-06,0.0,0 STARLINK-5453,1 54773U 22175R   23155.01127970  .00000517  00000-0  50538-4 0  9994,2 54773  53.2170 256.6174 0000819  98.8100 261.2985 15.08838688 25332,6917.884,95.438,540.316,539.183,0.0
54773.0,STARLINK-5453,PAYLOAD,2023-06-04 12:59:20,15.08788407,0.0001135,53.2168,254.2383,101.8992,258.2127,0.00077337,0.00012024,0.0,0 STARLINK-5453,1 54773U 22175R   23155.54121439  .00012024  00000-0  77337-3 0  9997,2 54773  53.2168 254.2383 0001135 101.8992 258.2127 15.08788407 27576,6918.038,95.441,540.688,539.118,0.0
54773.0,STARLINK-5453,PAYLOAD,2023-06-05 00:07:01,15.08841156,8.66e-05,53.217,252.1575,97.3136,262.7955,3.6958e-05,3.01e-06,0.0,0 STARLINK-5453,1 54773U 22175R   23156.00487976  .00000301  00000-0  36958-4 0  9990,2 54773  53.2170 252.1575 0000866  97.3136 262.7955 15.08841156 25486,6917.877,95.437,540.341,539.143,0.0
54773.0,STARLINK-5453,PAYLOAD,2023-06-05 12:50:06,15.0884575,7.97e-05,53.2167,249.7797,92.9727,267.1356,1.183e-06,-2.69e-06,0.0,0 STARLINK-5453,1 54773U 22175R   23156.53479882 -.00000269  00000-0  11830-5 0  9992,2 54773  53.2167 249.7797 0000797  92.9727 267.1356 15.08845750 27727,6917.863,95.437,540.279,539.176,0.0
54773.0,STARLINK-5453,PAYLOAD,2023-06-05 16:00:52,15.08851116,8.86e-05,53.2166,249.1848,90.5768,269.5326,-5.5867e-05,-1.177e-05,0.0,0 STARLINK-5453,1 54773U 22175R   23156.66727682 -.00001177  00000-0 -55867-4 0  9997,2 54773  53.2166 249.1848 0000886  90.5768 269.5326 15.08851116 27743,6917.846,95.437,540.324,539.098,0.0
54773.0,STARLINK-5453,PAYLOAD,2023-06-06 09:30:07,15.08839596,8.46e-05,53.2164,245.9136,91.4804,268.6285,6.2284e-05,7.04e-06,0.0,0 STARLINK-5453,1 54773U 22175R   23157.39592083  .00000704  00000-0  62284-4 0  9997,2 54773  53.2164 245.9136 0000846  91.4804 268.6285 15.08839596 25696,6917.882,95.438,540.332,539.161,0.0
54773.0,STARLINK-5453,PAYLOAD,2023-06-06 11:05:30,15.08840658,8.44e-05,53.2163,245.6162,91.136,268.9728,7.035e-05,8.32e-06,0.0,0 STARLINK-5453,1 54773U 22175R   23157.46215995  .00000832  00000-0  70350-4 0  9994,2 54773  53.2163 245.6162 0000844  91.1360 268.9728 15.08840658 27860,6917.878,95.438,540.327,539.16,0.0
54773.0,STARLINK-5453,PAYLOAD,2023-06-06 17:27:02,15.08846707,8.14e-05,53.2165,244.4271,89.7674,270.3411,0.00011359,1.521e-05,0.0,0 STARLINK-5453,1 54773U 22175R   23157.72711442  .00001521  00000-0  11359-3 0  9990,2 54773  53.2165 244.4271 0000814  89.7674 270.3411 15.08846707 25740,6917.86,95.437,540.288,539.162,0.0
54773.0,STARLINK-5453,PAYLOAD,2023-06-07 04:34:45,15.08834887,8.41e-05,53.2167,242.347,97.3092,262.7995,1.7199e-05,-1.4e-07,0.0,0 STARLINK-5453,1 54773U 22175R   23158.19080575 -.00000014  00000-0  17199-4 0  9994,2 54773  53.2167 242.3470 0000841  97.3092 262.7995 15.08834887 25815,6917.896,95.438,540.343,539.179,0.0
54773.0,STARLINK-5453,PAYLOAD,2023-06-07 06:10:08,15.08836354,9.16e-05,53.2163,242.0507,82.7874,277.3222,3.4622e-05,2.63e-06,0.0,0 STARLINK-5453,1 54773U 22175R   23158.25704469  .00000263  00000-0  34622-4 0  9991,2 54773  53.2163 242.0507 0000916  82.7874 277.3222 15.08836354 27984,6917.892,95.438,540.39,539.123,0.0
54773.0,STARLINK-5453,PAYLOAD,2023-06-07 22:03:59,15.08842193,8.77e-05,53.216,239.0768,86.9221,273.1871,1.1031e-05,-1.12e-06,0.0,0 STARLINK-5453,1 54773U 22175R   23158.91944172 -.00000112  00000-0  11031-4 0  9994,2 54773  53.2160 239.0768 0000877  86.9221 273.1871 15.08842193 25928,6917.874,95.437,540.345,539.132,0.0
54773.0,STARLINK-5453,PAYLOAD,2023-06-08 10:47:05,15.08838756,8.27e-05,53.216,236.6975,88.3204,271.7883,3.1007e-05,2.06e-06,0.0,0 STARLINK-5453,1 54773U 22175R   23159.44936430  .00000206  00000-0  31007-4 0  9999,2 54773  53.2160 236.6975 0000827  88.3204 271.7883 15.08838756 28169,6917.884,95.438,540.321,539.177,0.0
54773.0,STARLINK-5453,PAYLOAD,2023-06-09 13:48:38,15.08841357,0.0001191,53.2155,231.6424,64.9362,295.1754,6.884e-05,8.08e-06,0.0,0 STARLINK-5453,1 54773U 22175R   23160.57544394  .00000808  00000-0  68840-4 0  9992,2 54773  53.2155 231.6424 0001191  64.9362 295.1754 15.08841357 28334,6917.876,95.437,540.565,538.917,0.0
